0 BREEZE-M DEB (TANK)
1 28395U 04031C   13281.97067703  .00002846  00000-0  60701-3 0  2438
2 28395 049.4739 057.0408 5365005 249.5395 039.1423 05.01349178164832
0 BREEZE-M DEB (TANK)
1 28395U 04031C   13283.57013875  .00006525  00000-0  13335-2 0  2457
2 28395 049.4729 055.8805 5365231 250.5327 045.9675 05.01356598164924
0 BREEZE-M DEB (TANK)
1 28395U 04031C   13285.71858600  .00003400  00000-0  69884-3 0  2447
2 28395 049.4729 054.2874 5365291 251.8940 323.7093 05.01371273165024
0 BREEZE-M DEB (TANK)
1 28395U 04031C   13287.97990660  .00004084  00000-0  81511-3 0  2451
2 28395 049.4727 052.6257 5365424 253.3159 085.2890 05.01389781165136
0 BREEZE-M DEB (TANK)
1 28395U 04031C   13288.65271913  .00003901  00000-0  77501-3 0  2462
2 28395 049.4727 052.1312 5365461 253.7382 219.7221 05.01392887165173
0 BREEZE-M DEB (TANK)
1 28395U 04031C   13291.34788431  .00004079  00000-0  81807-3 0  2472
2 28395 049.4730 050.1505 5365624 255.4314 044.6352 05.01414468165309
0 BREEZE-M DEB (TANK)
1 28395U 04031C   13293.69660309  .00004637  00000-0  94604-3 0  2485
2 28395 049.4734 048.4244 5365814 256.9060 324.3626 05.01432722165426
0 BREEZE-M DEB (TANK)
1 28395U 04031C   13295.33638885  .00004301  00000-0  88536-3 0  2498
2 28395 049.4736 047.2195 5365925 257.9369 044.4520 05.01450449165504
